{
  "type": "FeatureCollection",
  "features": [
    {
      "type": "Feature",
      "properties": {
        "norad_id": 29930,
        "name": "FENGYUN 1C DEB",
        "group": "fengyun-1c-debris",
        "lat": 68.13388075543179,
        "lon": -155.9005831535869,
        "alt_km": 700.0436309138204,
        "timestamp": "2025-12-11T07:02:24.002590+00:00",
        "meta_object_name": "FENGYUN 1C DEB",
        "meta_object_id": "1999-025JC",
        "meta_epoch": "2025-12-10T22:21:42.424128",
        "meta_mean_motion": 14.2081338,
        "meta_eccentricity": 0.016461,
        "meta_inclination": 99.0444,
        "meta_ra_of_asc_node": 227.1139,
        "meta_arg_of_pericenter": 58.7057,
        "meta_mean_anomaly": 322.456,
        "meta_ephemeris_type": 0,
        "meta_classification_type": "U",
        "meta_norad_cat_id": 29930,
        "meta_element_set_no": 999,
        "meta_rev_at_epoch": 97865,
        "meta_bstar": 0.0003350567,
        "meta_mean_motion_dot": 7.83e-06,
        "meta_mean_motion_ddot": 0,
        "tle_line1": "1 29930U 99025JC  25344.93174102  .00000783  00000+0  33506-3 0  9990",
        "tle_line2": "2 29930  99.0444 227.1139 0164610  58.7057 322.4560 14.20813380978657"
      },
      "geometry": {
        "type": "Point",
        "coordinates": [
          -155.9005831535869,
          68.13388075543179
        ]
      }
    },
    {
      "type": "Feature",
      "properties": {
        "norad_id": 29931,
        "name": "FENGYUN 1C DEB",
        "group": "fengyun-1c-debris",
        "lat": 19.960217288657415,
        "lon": -156.11406455980804,
        "alt_km": 869.1785264360124,
        "timestamp": "2025-12-11T07:02:24.002601+00:00",
        "meta_object_name": "FENGYUN 1C DEB",
        "meta_object_id": "1999-025JD",
        "meta_epoch": "2025-12-10T20:50:32.556768",
        "meta_mean_motion": 14.03891004,
        "meta_eccentricity": 0.00325973,
        "meta_inclination": 98.8596,
        "meta_ra_of_asc_node": 20.2245,
        "meta_arg_of_pericenter": 98.8227,
        "meta_mean_anomaly": 74.2633,
        "meta_ephemeris_type": 0,
        "meta_classification_type": "U",
        "meta_norad_cat_id": 29931,
        "meta_element_set_no": 999,
        "meta_rev_at_epoch": 96786,
        "meta_bstar": 0.00025054435,
        "meta_mean_motion_dot": 3.54e-06,
        "meta_mean_motion_ddot": 0,
        "tle_line1": "1 29931U 99025JD  25344.86843237  .00000354  00000+0  25054-3 0  9998",
        "tle_line2": "2 29931  98.8596  20.2245 0032597  98.8227  74.2633 14.03891004967869"
      },
      "geometry": {
        "type": "Point",
        "coordinates": [
          -156.11406455980804,
          19.960217288657415
        ]
      }
    },
    {
      "type": "Feature",
      "properties": {
        "norad_id": 29932,
        "name": "FENGYUN 1C DEB",
        "group": "fengyun-1c-debris",
        "lat": -5.352507118123284,
        "lon": 175.20586020046198,
        "alt_km": 849.7190195559615,
        "timestamp": "2025-12-11T07:02:24.002610+00:00",
        "meta_object_name": "FENGYUN 1C DEB",
        "meta_object_id": "1999-025JE",
        "meta_epoch": "2025-12-10T23:31:49.916640",
        "meta_mean_motion": 14.16759413,
        "meta_eccentricity": 0.00385814,
        "meta_inclination": 98.6342,
        "meta_ra_of_asc_node": 355.7179,
        "meta_arg_of_pericenter": 75.3686,
        "meta_mean_anomaly": 314.5456,
        "meta_ephemeris_type": 0,
        "meta_classification_type": "U",
        "meta_norad_cat_id": 29932,
        "meta_element_set_no": 999,
        "meta_rev_at_epoch": 97559,
        "meta_bstar": 0.00040155905,
        "meta_mean_motion_dot": 7.67e-06,
        "meta_mean_motion_ddot": 0,
        "tle_line1": "1 29932U 99025JE  25344.98043885  .00000767  00000+0  40156-3 0  9991",
        "tle_line2": "2 29932  98.6342 355.7179 0038581  75.3686 314.5456 14.16759413975590"
      },
      "geometry": {
        "type": "Point",
        "coordinates": [
          175.20586020046198,
          -5.352507118123284
        ]
      }
    },
    {
      "type": "Feature",
      "properties": {
        "norad_id": 29933,
        "name": "FENGYUN 1C DEB",
        "group": "fengyun-1c-debris",
        "lat": 8.40623653927828,
        "lon": 87.095350009562,
        "alt_km": 673.8810950313482,
        "timestamp": "2025-12-11T07:02:24.002620+00:00",
        "meta_object_name": "FENGYUN 1C DEB",
        "meta_object_id": "1999-025JF",
        "meta_epoch": "2025-12-10T18:35:27.252672",
        "meta_mean_motion": 14.65759158,
        "meta_eccentricity": 0.0004244,
        "meta_inclination": 98.7489,
        "meta_ra_of_asc_node": 87.8473,
        "meta_arg_of_pericenter": 335.9984,
        "meta_mean_anomaly": 177.0696,
        "meta_ephemeris_type": 0,
        "meta_classification_type": "U",
        "meta_norad_cat_id": 29933,
        "meta_element_set_no": 999,
        "meta_rev_at_epoch": 98476,
        "meta_bstar": 0.0053108347,
        "meta_mean_motion_dot": 0.00029014,
        "meta_mean_motion_ddot": 0,
        "tle_line1": "1 29933U 99025JF  25344.77462098  .00029014  00000+0  53108-2 0  9996",
        "tle_line2": "2 29933  98.7489  87.8473 0004244 335.9984 177.0696 14.65759158984766"
      },
      "geometry": {
        "type": "Point",
        "coordinates": [
          87.095350009562,
          8.40623653927828
        ]
      }
    },
    {
      "type": "Feature",
      "properties": {
        "norad_id": 29934,
        "name": "FENGYUN 1C DEB",
        "group": "fengyun-1c-debris",
        "lat": -48.98166971242358,
        "lon": 42.42700435642836,
        "alt_km": 645.1877383017809,
        "timestamp": "2025-12-11T07:02:24.002631+00:00",
        "meta_object_name": "FENGYUN 1C DEB",
        "meta_object_id": "1999-025JG",
        "meta_epoch": "2025-12-10T01:44:08.669184",
        "meta_mean_motion": 14.63747035,
        "meta_eccentricity": 0.01006479,
        "meta_inclination": 98.9041,
        "meta_ra_of_asc_node": 30.7254,
        "meta_arg_of_pericenter": 260.5204,
        "meta_mean_anomaly": 98.4608,
        "meta_ephemeris_type": 0,
        "meta_classification_type": "U",
        "meta_norad_cat_id": 29934,
        "meta_element_set_no": 999,
        "meta_rev_at_epoch": 99733,
        "meta_bstar": 0.0012402065,
        "meta_mean_motion_dot": 6.9e-05,
        "meta_mean_motion_ddot": 0,
        "tle_line1": "1 29934U 99025JG  25344.07232256  .00006900  00000+0  12402-2 0  9992",
        "tle_line2": "2 29934  98.9041  30.7254 0100647 260.5204  98.4608 14.63747035997334"
      },
      "geometry": {
        "type": "Point",
        "coordinates": [
          42.42700435642836,
          -48.98166971242358
        ]
      }
    },
    {
      "type": "Feature",
      "properties": {
        "norad_id": 29935,
        "name": "FENGYUN 1C DEB",
        "group": "fengyun-1c-debris",
        "lat": -26.20867920598662,
        "lon": 51.7698975259182,
        "alt_km": 891.9778355192057,
        "timestamp": "2025-12-11T07:02:24.002641+00:00",
        "meta_object_name": "FENGYUN 1C DEB",
        "meta_object_id": "1999-025JH",
        "meta_epoch": "2025-12-10T04:07:04.214784",
        "meta_mean_motion": 14.14235932,
        "meta_eccentricity": 0.01500604,
        "meta_inclination": 98.4618,
        "meta_ra_of_asc_node": 46.5046,
        "meta_arg_of_pericenter": 223.546,
        "meta_mean_anomaly": 160.5367,
        "meta_ephemeris_type": 0,
        "meta_classification_type": "U",
        "meta_norad_cat_id": 29935,
        "meta_element_set_no": 999,
        "meta_rev_at_epoch": 97506,
        "meta_bstar": 0.00017051111,
        "meta_mean_motion_dot": 3.21e-06,
        "meta_mean_motion_ddot": 0,
        "tle_line1": "1 29935U 99025JH  25344.17157656  .00000321  00000+0  17051-3 0  9991",
        "tle_line2": "2 29935  98.4618  46.5046 0150060 223.5460 160.5367 14.14235932975064"
      },
      "geometry": {
        "type": "Point",
        "coordinates": [
          51.7698975259182,
          -26.20867920598662
        ]
      }
    },
    {
      "type": "Feature",
      "properties": {
        "norad_id": 29936,
        "name": "FENGYUN 1C DEB",
        "group": "fengyun-1c-debris",
        "lat": -78.71957078757825,
        "lon": -131.1254652951928,
        "alt_km": 754.5461714759958,
        "timestamp": "2025-12-11T07:02:24.002651+00:00",
        "meta_object_name": "FENGYUN 1C DEB",
        "meta_object_id": "1999-025JJ",
        "meta_epoch": "2025-12-10T14:45:58.385376",
        "meta_mean_motion": 14.35307928,
        "meta_eccentricity": 0.0113866,
        "meta_inclination": 98.6562,
        "meta_ra_of_asc_node": 97.9888,
        "meta_arg_of_pericenter": 193.336,
        "meta_mean_anomaly": 166.4809,
        "meta_ephemeris_type": 0,
        "meta_classification_type": "U",
        "meta_norad_cat_id": 29936,
        "meta_element_set_no": 999,
        "meta_rev_at_epoch": 98900,
        "meta_bstar": 0.00036299,
        "meta_mean_motion_dot": 1.072e-05,
        "meta_mean_motion_ddot": 0,
        "tle_line1": "1 29936U 99025JJ  25344.61525909  .00001072  00000+0  36299-3 0  9990",
        "tle_line2": "2 29936  98.6562  97.9888 0113866 193.3360 166.4809 14.35307928989008"
      },
      "geometry": {
        "type": "Point",
        "coordinates": [
          -131.1254652951928,
          -78.71957078757825
        ]
      }
    }
  ]
}